FLYING LAPTOP           
1 42831U 17042G   26063.84324821  .00005155  00000+0  41230-3 0  9999
2 42831  97.4254 223.7338 0018665 111.1672 249.1549 15.00479867470804
HAWK-A                  
1 43765U 18099H   26063.55214536  .00010948  00000+0  45898-3 0  9998
2 43765  97.4062 117.1868 0034421 294.3937  65.3709 15.23132102397164
HAWK-B                  
1 43794U 18099AN  26063.51838316  .00009439  00000+0  41754-3 0  9994
2 43794  97.4110 116.7781 0031649 312.4801  47.3760 15.21441463397113
HAWK-C                  
1 43799U 18099AT  26063.10018013  .00013265  00000+0  50199-3 0  9993
2 43799  97.4040 117.1589 0040629 297.9203  61.7924 15.26279019397878
SALSAT                  
1 46495U 20068K   26063.50003082  .00014646  00000+0  53709-3 0  9996
2 46495  97.8848  60.3287 0008688 318.7431  41.3149 15.28060764299367
HAWK-2C                 
1 47502U 21006CT  26063.12852111  .00010178  00000+0  31955-3 0  9997
2 47502  97.2423 109.5609 0006342 204.8100 155.2838 15.33187058283395
HAWK-2A                 
1 47505U 21006CW  26063.13209728  .00012905  00000+0  40419-3 0  9996
2 47505  97.2467 110.1797 0005887 208.0476 152.0450 15.33207120283395
HAWK-2B                 
1 47508U 21006CZ  26063.06360024  .00010416  00000+0  32703-3 0  9990
2 47508  97.2340 108.6207 0006500 206.5248 153.5663 15.33178040283388
HAWK-3B                 
1 48931U 21059BE  26063.48682312  .00053714  00000+0  63557-3 0  9991
2 48931  97.6710 250.9409 0005377 358.4277   1.6962 15.61097980261474
HAWK-3C                 
1 48948U 21059BX  26063.80708569  .00050001  00000+0  59128-3 0  9993
2 48948  97.6858 256.7769 0005868 357.3565   2.7660 15.61126572261524
HAWK-3A                 
1 48957U 21059CG  26063.48641695  .00054452  00000+0  64411-3 0  9998
2 48957  97.6795 253.7225 0005459 358.2876   1.8361 15.61102230261476
HAWK-5C                 
1 52754U 22057Y   26063.80961329  .00026228  00000+0  51525-3 0  9994
2 52754  97.6448 217.1649 0005638  92.2645 267.9250 15.47273476210182
HAWK-5B                 
1 52756U 22057AA  26063.80948277  .00026405  00000+0  51868-3 0  9990
2 52756  97.6450 215.5050 0005615  86.9714 273.2177 15.47274562210182
HAWK-5A                 
1 52757U 22057AB  26063.80920383  .00027048  00000+0  53117-3 0  9992
2 52757  97.6450 216.3388 0006017  89.0990 271.0948 15.47274246210184
HAWK-6B                 
1 55324U 23011A   26063.55457641  .00008858  00000+0  38986-3 0  9995
2 55324  40.5118 241.8769 0002827 350.2508   9.8246 15.21823496171895
HAWK-6C                 
1 55326U 23011C   26063.55397615  .00009074  00000+0  39915-3 0  9995
2 55326  40.4822 238.7594 0003247 336.7138  23.3523 15.21817370171909
HAWK-6A                 
1 55327U 23011D   26063.75086331  .00009168  00000+0  40313-3 0  9996
2 55327  40.4973 239.2145 0002881 335.7521  24.3152 15.21824761171937
